OSCAR 7 (AO-7)          
1 07530U 74089B   25179.56927606 -.00000045  00000+0  64953-5 0  9999
2 07530 101.9927 184.0355 0012658  86.0373  26.1272 12.53689867316444
PHASE 3B (AO-10)        
1 14129U 83058B   25176.40454699 -.00000099  00000+0  00000+0 0  9990
2 14129  26.6374 279.8308 6064134  16.5340 356.6382  2.05869459288141
UOSAT 2 (UO-11)         
1 14781U 84021B   25179.47919198  .00000750  00000+0  84616-4 0  9998
2 14781  97.7551 145.4752 0006256 275.8298  84.2206 14.89431681204457
LUSAT (LO-19)           
1 20442U 90005G   25179.57527981  .00000061  00000+0  38669-4 0  9996
2 20442  98.8977 186.3286 0011999 157.8491 202.3214 14.33960526851715
EYESAT A (AO-27)        
1 22825U 93061C   25179.44870439  .00000063  00000+0  41207-4 0  9997
2 22825  98.7359 241.0977 0009358  62.0730 298.1399 14.30804725656412
ITAMSAT (IO-26)         
1 22826U 93061D   25179.60189260  .00000076  00000+0  45762-4 0  9995
2 22826  98.7306 241.1366 0009676  47.1066 313.0927 14.31218479656732
RADIO ROSTO (RS-15)     
1 23439U 94085A   25179.60092820 -.00000054  00000+0 -32121-3 0  9990
2 23439  64.8137 155.0459 0145819  70.6283 291.0339 11.27581510256039
JAS-2 (FO-29)           
1 24278U 96046B   25179.60521576 -.00000007  00000+0  31694-4 0  9998
2 24278  98.5735  70.9926 0348906 293.3980  63.0828 13.53249978425345
TECHSAT 1B (GO-32)      
1 25397U 98043D   25179.51846686  .00000028  00000+0  32261-4 0  9995
2 25397  98.9711 159.0337 0002008 125.1227 235.0139 14.24318934400984
ISS (ZARYA)             
1 25544U 98067A   25179.67346309  .00005814  00000+0  10869-3 0  9996
2 25544  51.6347 250.1490 0002267 304.7962  55.2814 15.50286067516947
PCSAT (NO-44)           
1 26931U 01043C   25179.43705695  .00000089  00000+0  64576-4 0  9990
2 26931  67.0513  79.0849 0006144 276.7547  83.2855 14.31742332239808
SAUDISAT 1C (SO-50)     
1 27607U 02058C   25179.58656031  .00000886  00000+0  12776-3 0  9992
2 27607  64.5517 141.8639 0058526 329.8896  29.8849 14.81668681212043
CUTE-1 (CO-55)          
1 27844U 03031E   25179.51064689  .00000196  00000+0  10442-3 0  9994
2 27844  98.6755 187.5395 0010596 127.8458 232.3681 14.24008533141338
CUBESAT XI-IV (CO-57)   
1 27848U 03031J   25179.53820312  .00000165  00000+0  91959-4 0  9992
2 27848  98.6781 187.5581 0010216 143.9805 216.2063 14.23341584141062
