[
  {
    "OBJECT_NAME": "OSCAR 7 (AO-7)",
    "OBJECT_ID": "1974-089B",
    "EPOCH": "2025-06-28T13:39:45.451584",
    "MEAN_MOTION": 12.53689867,
    "ECCENTRICITY": 0.0012658,
    "INCLINATION": 101.9927,
    "RA_OF_ASC_NODE": 184.0355,
    "ARG_OF_PERICENTER": 86.0373,
    "MEAN_ANOMALY": 26.1272,
    "EPHEMERIS_TYPE": 0,
    "CLASSIFICATION_TYPE": "U",
    "NORAD_CAT_ID": 7530,
    "ELEMENT_SET_NO": 999,
    "REV_AT_EPOCH": 31644,
    "BSTAR": 6.4953e-06,
    "MEAN_MOTION_DOT": -4.5e-07,
    "MEAN_MOTION_DDOT": 0
  },
  {
    "OBJECT_NAME": "PHASE 3B (AO-10)",
    "OBJECT_ID": "1983-058B",
    "EPOCH": "2025-06-25T09:42:32.859936",
    "MEAN_MOTION": 2.05869459,
    "ECCENTRICITY": 0.6064134,
    "INCLINATION": 26.6374,
    "RA_OF_ASC_NODE": 279.8308,
    "ARG_OF_PERICENTER": 16.534,
    "MEAN_ANOMALY": 356.6382,
    "EPHEMERIS_TYPE": 0,
    "CLASSIFICATION_TYPE": "U",
    "NORAD_CAT_ID": 14129,
    "ELEMENT_SET_NO": 999,
    "REV_AT_EPOCH": 28814,
    "BSTAR": 0,
    "MEAN_MOTION_DOT": -9.9e-07,
    "MEAN_MOTION_DDOT": 0
  },
  {
    "OBJECT_NAME": "UOSAT 2 (UO-11)",
    "OBJECT_ID": "1984-021B",
    "EPOCH": "2025-06-28T11:30:02.187072",
    "MEAN_MOTION": 14.89431681,
    "ECCENTRICITY": 0.0006256,
    "INCLINATION": 97.7551,
    "RA_OF_ASC_NODE": 145.4752,
    "ARG_OF_PERICENTER": 275.8298,
    "MEAN_ANOMALY": 84.2206,
    "EPHEMERIS_TYPE": 0,
    "CLASSIFICATION_TYPE": "U",
    "NORAD_CAT_ID": 14781,
    "ELEMENT_SET_NO": 999,
    "REV_AT_EPOCH": 20445,
    "BSTAR": 8.4616e-05,
    "MEAN_MOTION_DOT": 7.5e-06,
    "MEAN_MOTION_DDOT": 0
  },
  {
    "OBJECT_NAME": "LUSAT (LO-19)",
    "OBJECT_ID": "1990-005G",
    "EPOCH": "2025-06-28T13:48:24.175584",
    "MEAN_MOTION": 14.33960526,
    "ECCENTRICITY": 0.0011999,
    "INCLINATION": 98.8977,
    "RA_OF_ASC_NODE": 186.3286,
    "ARG_OF_PERICENTER": 157.8491,
    "MEAN_ANOMALY": 202.3214,
    "EPHEMERIS_TYPE": 0,
    "CLASSIFICATION_TYPE": "U",
    "NORAD_CAT_ID": 20442,
    "ELEMENT_SET_NO": 999,
    "REV_AT_EPOCH": 85171,
    "BSTAR": 3.8669e-05,
    "MEAN_MOTION_DOT": 6.1e-07,
    "MEAN_MOTION_DDOT": 0
  },
  {
    "OBJECT_NAME": "EYESAT A (AO-27)",
    "OBJECT_ID": "1993-061C",
    "EPOCH": "2025-06-28T10:46:08.059296",
    "MEAN_MOTION": 14.30804725,
    "ECCENTRICITY": 0.0009358,
    "INCLINATION": 98.7359,
    "RA_OF_ASC_NODE": 241.0977,
    "ARG_OF_PERICENTER": 62.073,
    "MEAN_ANOMALY": 298.1399,
    "EPHEMERIS_TYPE": 0,
    "CLASSIFICATION_TYPE": "U",
    "NORAD_CAT_ID": 22825,
    "ELEMENT_SET_NO": 999,
    "REV_AT_EPOCH": 65641,
    "BSTAR": 4.1207e-05,
    "MEAN_MOTION_DOT": 6.3e-07,
    "MEAN_MOTION_DDOT": 0
  },
  {
    "OBJECT_NAME": "ITAMSAT (IO-26)",
    "OBJECT_ID": "1993-061D",
    "EPOCH": "2025-06-28T14:26:43.520640",
    "MEAN_MOTION": 14.31218479,
    "ECCENTRICITY": 0.0009676,
    "INCLINATION": 98.7306,
    "RA_OF_ASC_NODE": 241.1366,
    "ARG_OF_PERICENTER": 47.1066,
    "MEAN_ANOMALY": 313.0927,
    "EPHEMERIS_TYPE": 0,
    "CLASSIFICATION_TYPE": "U",
    "NORAD_CAT_ID": 22826,
    "ELEMENT_SET_NO": 999,
    "REV_AT_EPOCH": 65673,
    "BSTAR": 4.5762e-05,
    "MEAN_MOTION_DOT": 7.6e-07,
    "MEAN_MOTION_DDOT": 0
  },
  {
    "OBJECT_NAME": "RADIO ROSTO (RS-15)",
    "OBJECT_ID": "1994-085A",
    "EPOCH": "2025-06-28T14:25:20.196480",
    "MEAN_MOTION": 11.2758151,
    "ECCENTRICITY": 0.0145819,
    "INCLINATION": 64.8137,
    "RA_OF_ASC_NODE": 155.0459,
    "ARG_OF_PERICENTER": 70.6283,
    "MEAN_ANOMALY": 291.0339,
    "EPHEMERIS_TYPE": 0,
    "CLASSIFICATION_TYPE": "U",
    "NORAD_CAT_ID": 23439,
    "ELEMENT_SET_NO": 999,
    "REV_AT_EPOCH": 25603,
    "BSTAR": -0.00032121,
    "MEAN_MOTION_DOT": -5.4e-07,
    "MEAN_MOTION_DDOT": 0
  },
  {
    "OBJECT_NAME": "JAS-2 (FO-29)",
    "OBJECT_ID": "1996-046B",
    "EPOCH": "2025-06-28T14:31:30.641664",
    "MEAN_MOTION": 13.53249978,
    "ECCENTRICITY": 0.0348906,
    "INCLINATION": 98.5735,
    "RA_OF_ASC_NODE": 70.9926,
    "ARG_OF_PERICENTER": 293.398,
    "MEAN_ANOMALY": 63.0828,
    "EPHEMERIS_TYPE": 0,
    "CLASSIFICATION_TYPE": "U",
    "NORAD_CAT_ID": 24278,
    "ELEMENT_SET_NO": 999,
    "REV_AT_EPOCH": 42534,
    "BSTAR": 3.1694e-05,
    "MEAN_MOTION_DOT": -7e-08,
    "MEAN_MOTION_DDOT": 0
  },
  {
    "OBJECT_NAME": "TECHSAT 1B (GO-32)",
    "OBJECT_ID": "1998-043D",
    "EPOCH": "2025-06-28T12:26:35.536704",
    "MEAN_MOTION": 14.24318934,
    "ECCENTRICITY": 0.0002008,
    "INCLINATION": 98.9711,
    "RA_OF_ASC_NODE": 159.0337,
    "ARG_OF_PERICENTER": 125.1227,
    "MEAN_ANOMALY": 235.0139,
    "EPHEMERIS_TYPE": 0,
    "CLASSIFICATION_TYPE": "U",
    "NORAD_CAT_ID": 25397,
    "ELEMENT_SET_NO": 999,
    "REV_AT_EPOCH": 40098,
    "BSTAR": 3.2261e-05,
    "MEAN_MOTION_DOT": 2.8e-07,
    "MEAN_MOTION_DDOT": 0
  },
  {
    "OBJECT_NAME": "ISS (ZARYA)",
    "OBJECT_ID": "1998-067A",
    "EPOCH": "2025-06-28T16:09:47.210976",
    "MEAN_MOTION": 15.50286067,
    "ECCENTRICITY": 0.0002267,
    "INCLINATION": 51.6347,
    "RA_OF_ASC_NODE": 250.149,
    "ARG_OF_PERICENTER": 304.7962,
    "MEAN_ANOMALY": 55.2814,
    "EPHEMERIS_TYPE": 0,
    "CLASSIFICATION_TYPE": "U",
    "NORAD_CAT_ID": 25544,
    "ELEMENT_SET_NO": 999,
    "REV_AT_EPOCH": 51694,
    "BSTAR": 0.00010869,
    "MEAN_MOTION_DOT": 5.814e-05,
    "MEAN_MOTION_DDOT": 0
  },
  {
    "OBJECT_NAME": "PCSAT (NO-44)",
    "OBJECT_ID": "2001-043C",
    "EPOCH": "2025-06-28T10:29:21.720480",
    "MEAN_MOTION": 14.31742332,
    "ECCENTRICITY": 0.0006144,
    "INCLINATION": 67.0513,
    "RA_OF_ASC_NODE": 79.0849,
    "ARG_OF_PERICENTER": 276.7547,
    "MEAN_ANOMALY": 83.2855,
    "EPHEMERIS_TYPE": 0,
    "CLASSIFICATION_TYPE": "U",
    "NORAD_CAT_ID": 26931,
    "ELEMENT_SET_NO": 999,
    "REV_AT_EPOCH": 23980,
    "BSTAR": 6.4576e-05,
    "MEAN_MOTION_DOT": 8.9e-07,
    "MEAN_MOTION_DDOT": 0
  },
  {
    "OBJECT_NAME": "SAUDISAT 1C (SO-50)",
    "OBJECT_ID": "2002-058C",
    "EPOCH": "2025-06-28T14:04:38.810784",
    "MEAN_MOTION": 14.81668681,
    "ECCENTRICITY": 0.0058526,
    "INCLINATION": 64.5517,
    "RA_OF_ASC_NODE": 141.8639,
    "ARG_OF_PERICENTER": 329.8896,
    "MEAN_ANOMALY": 29.8849,
    "EPHEMERIS_TYPE": 0,
    "CLASSIFICATION_TYPE": "U",
    "NORAD_CAT_ID": 27607,
    "ELEMENT_SET_NO": 999,
    "REV_AT_EPOCH": 21204,
    "BSTAR": 0.00012776,
    "MEAN_MOTION_DOT": 8.86e-06,
    "MEAN_MOTION_DDOT": 0
  },
  {
    "OBJECT_NAME": "CUTE-1 (CO-55)",
    "OBJECT_ID": "2003-031E",
    "EPOCH": "2025-06-28T12:15:19.891296",
    "MEAN_MOTION": 14.24008533,
    "ECCENTRICITY": 0.0010596,
    "INCLINATION": 98.6755,
    "RA_OF_ASC_NODE": 187.5395,
    "ARG_OF_PERICENTER": 127.8458,
    "MEAN_ANOMALY": 232.3681,
    "EPHEMERIS_TYPE": 0,
    "CLASSIFICATION_TYPE": "U",
    "NORAD_CAT_ID": 27844,
    "ELEMENT_SET_NO": 999,
    "REV_AT_EPOCH": 14133,
    "BSTAR": 0.00010442,
    "MEAN_MOTION_DOT": 1.96e-06,
    "MEAN_MOTION_DDOT": 0
  },
  {
    "OBJECT_NAME": "CUBESAT XI-IV (CO-57)",
    "OBJECT_ID": "2003-031J",
    "EPOCH": "2025-06-28T12:55:00.749568",
    "MEAN_MOTION": 14.23341584,
    "ECCENTRICITY": 0.0010216,
    "INCLINATION": 98.6781,
    "RA_OF_ASC_NODE": 187.5581,
    "ARG_OF_PERICENTER": 143.9805,
    "MEAN_ANOMALY": 216.2063,
    "EPHEMERIS_TYPE": 0,
    "CLASSIFICATION_TYPE": "U",
    "NORAD_CAT_ID": 27848,
    "ELEMENT_SET_NO": 999,
    "REV_AT_EPOCH": 14106,
    "BSTAR": 9.1959e-05,
    "MEAN_MOTION_DOT": 1.65e-06,
    "MEAN_MOTION_DDOT": 0
  }
]